{"fetched_at":"2026-03-29T02:12:04Z","count":15717,"tles":[{"name":"COSMOS 2596 (708K)","line1":"1 65590U 25206B   26086.61511387 -.00000031  00000+0  00000+0 0  9997","line2":"2 65590  64.6808 317.8263 0012287 316.8794 256.7022  2.13100192  4172","category":"Other"}]}